CUTE-1 (CO-55)          
1 27844U 03031E   20107.52293403  .00000056  00000-0  45078-4 0  9999
2 27844  98.6840 116.1880 0008907 230.2737 129.7657 14.22231638871291
CUBESAT XI-IV (CO-57)   
1 27848U 03031J   20107.53160645  .00000044  00000-0  39688-4 0  9992
2 27848  98.6909 116.7475 0008662 243.7369 116.2918 14.21819240871140
CUBESAT XI-V            
1 28895U 05043F   20107.61863308  .00000133  00000-0  34399-4 0  9998
2 28895  97.9991 245.7410 0018139 114.4075 245.9023 14.63757012771797
CUTE-1.7+APD II (CO-65) 
1 32785U 08021C   20107.61924171  .00000222  00000-0  29576-4 0  9996
2 32785  97.5705  98.3666 0012570 345.4994  14.5861 14.88448241648749
AAUSAT-II               
1 32788U 08021F   20107.74343116  .00000308  00000-0  33086-4 0  9993
2 32788  97.4926 114.9845 0010105 261.9008  98.1067 14.95006823650192
DELFI-C3 (DO-64)        
1 32789U 08021G   20107.08010223  .00001422  00000-0  97280-4 0  9995
2 32789  97.4252 152.0452 0012695 162.5707 197.5959 15.07594486652412
SEEDS II (CO-66)        
1 32791U 08021J   20107.25700839  .00000374  00000-0  43173-4 0  9993
2 32791  97.5400 104.1607 0012110 315.2723  44.7518 14.91015142649114
SWISSCUBE               
1 35932U 09051B   20107.45267802  .00000132  00000-0  40771-4 0  9990
2 35932  98.6091 287.7486 0006760 324.7505  35.3244 14.56377698560844
BEESAT-1                
1 35933U 09051C   20107.78178854  .00000111  00000-0  35983-4 0  9991
2 35933  98.6094 289.9449 0005243 341.0191  19.0809 14.56455539561005
ITUPSAT1                
1 35935U 09051E   20107.46548269  .00000079  00000-0  29295-4 0  9991
2 35935  98.6201 289.8269 0007519 337.1365  22.9495 14.55603495560685
TISAT 1                 
1 36799U 10035E   20107.57567138  .00000235  00000-0  29730-4 0  9990
2 36799  98.1891 275.4904 0012611 166.8358 193.3190 14.91318712529909
M-CUBED & EXP-1 PRIME   
1 37855U 11061F   20107.66594687  .00000495  00000-0  32696-4 0  9996
2 37855 101.7166 164.2346 0171174 258.2701  99.9262 15.06154278462372
AEROCUBE 4.5A           
1 38767U 12048K   20107.35563923  .00000201  00000-0  31367-4 0  9999
2 38767  64.6662  70.4783 0147881 157.6309 203.1344 14.92233040 32530
AEROCUBE 4.5B           
1 38768U 12048L   20107.18258448  .00000413  00000-0  45165-4 0  9990
2 38768  64.6682  40.6666 0136582 154.0190 206.7866 14.95878317 32563
STRAND-1                
1 39090U 13009E   20107.51646114  .00000032  00000-0  26173-4 0  9990
2 39090  98.4628 312.9682 0010303 106.6562 253.5755 14.35125404373806
SOMP                    
1 39134U 13015E   20107.76775497  .00001295  00000-0  66716-4 0  9999
2 39134  64.8613 117.9918 0035918 254.2168 105.4998 15.20915359386676
BEESAT-3                
1 39135U 13015F   20107.45089268  .00000678  00000-0  42426-4 0  9996
2 39135  64.8656 141.6485 0041371 257.7685 101.8807 15.18069000385802
BEESAT-2                
1 39136U 13015G   20107.53937916  .00000865  00000-0  52617-4 0  9999
2 39136  64.8657 146.1247 0028958 281.1717  78.6153 15.17445422385724
NEE-01 PEGASO           
1 39151U 13018B   20107.20807942  .00000147  00000-0  26382-4 0  9991
2 39151  97.9688 206.4684 0015765 304.6293  55.3431 14.80150520376462
ESTCUBE 1               
1 39161U 13021C   20107.70744956  .00000159  00000-0  32931-4 0  9996
2 39161  97.9662 191.9783 0010849  79.0351 281.2074 14.72302003372958
POPACS 1                
1 39268U 13055D   20107.42220358  .00005635  00000-0  15271-3 0  9996
2 39268  81.0045   1.7339 0619337  46.5036 318.5941 14.38912563340543
POPACS 2                
1 39269U 13055E   20107.52334018  .00002263  00000-0  63454-4 0  9998
2 39269  81.0170  38.1654 0679528 140.7685 224.4845 14.25200973337165
POPACS 3                
1 39270U 13055F   20107.32810430  .00000790  00000-0  23924-4 0  9996
2 39270  81.0171  59.1714 0710349 201.1494 155.8918 14.16722922316332
ZACUBE-1 (TSHEPISOSAT)  
1 39417U 13066B   20107.69076349  .00000214  00000-0  32973-4 0  9999
2 39417  97.5650 109.1528 0060266 119.6829 241.0403 14.81250086345898
WNISAT-1                
1 39423U 13066H   20107.34542427  .00000078  00000-0  24784-4 0  9992
2 39423  97.8015  33.0753 0176521  89.1365 273.0043 14.53106675339415
TRITON-1                
1 39427U 13066M   20107.79188579  .00000187  00000-0  38039-4 0  9998
2 39427  97.7196  72.1686 0112149 275.4591  83.3830 14.67979350342800
GOMX-1                  
1 39430U 13066Q   20107.61884318  .00000255  00000-0  54912-4 0  9991
2 39430  97.7854  49.8992 0151774  19.9037 340.7993 14.59376253340788
CUBEBUG-2 (LO-74)       
1 39440U 13066AA  20107.66336160  .00000197  00000-0  34217-4 0  9995
2 39440  97.6274  93.5949 0080064 179.7694 180.3568 14.75987714344664
NEE-02 KRYSAOR          
1 39441U 13066AB  20107.70130218  .00000130  00000-0  25574-4 0  9990
2 39441  97.6342  91.1859 0081395 188.2693 171.7181 14.75000963344462
FUNCUBE-1 (AO-73)       
1 39444U 13066AE  20107.65642859  .00000290  00000-0  41629-4 0  9992
2 39444  97.5598 111.3149 0059467 112.4520 248.3006 14.82097030344801
UWE-3                   
1 39446U 13066AG  20107.55477325  .00000191  00000-0  31867-4 0  9990
2 39446  97.5965 100.6864 0070668 150.6406 209.8806 14.78521833344010
AEROCUBE 5A             
1 39465U 13072D   20107.47628076  .00007640  00000-0  63557-3 0  9996
2 39465 120.4982 298.7704 0267136 180.2175 179.8787 14.76068023 32213
AEROCUBE 5B             
1 39466U 13072E   20107.54623038  .00005496  00000-0  40074-3 0  9994
2 39466 120.4921 332.4818 0237998 188.2155 171.4960 14.85629265 32377
BRITE-CA1 (TORONTO)     
1 40020U 14033L   20107.53293344  .00000051  00000-0  17333-4 0  9997
2 40020  97.7327 299.2859 0085923 270.3514  88.7846 14.66636610311685
DUCHIFAT-1              
1 40021U 14033M   20107.33209888  .00000319  00000-0  38243-4 0  9996
2 40021  97.9399  38.1999 0013956 127.7422 232.5062 14.90863048316635
NANOSATC-BR1            
1 40024U 14033Q   20107.79054416  .00000294  00000-0  36368-4 0  9992
2 40024  97.9256  35.2378 0013210 130.2119 230.0256 14.90038982316576
QB50P1                  
1 40025U 14033R   20107.77010365  .00000222  00000-0  29477-4 0  9990
2 40025  97.9140  32.0934 0013327 137.0737 223.1522 14.89106953316427
QB50P2                  
1 40032U 14033Y   20107.73261196  .00000269  00000-0  34897-4 0  9997
2 40032  97.9034  29.6569 0012773 134.0697 226.1573 14.88634949316327
PERSEUS-M2              
1 40037U 14033AD  20107.73928922  .00000091  00000-0  16500-4 0  9993
2 40037  97.8897  24.5487 0015046 149.7002 210.5086 14.86531312315996
PERSEUS-M1              
1 40039U 14033AF  20107.73310923  .00000085  00000-0  15900-4 0  9997
2 40039  97.8865  23.3793 0014932 147.6794 212.5339 14.86151179315912
POLYITAN-1              
1 40042U 14033AJ  20107.75562216  .00000300  00000-0  38023-4 0  9998
2 40042  97.9223  32.5667 0015638 128.9029 231.3585 14.88852345316327
TIGRISAT                
1 40043U 14033AK  20107.39061315  .00000120  00000-0  25009-4 0  9993
2 40043  97.7184 326.6184 0059374 197.9730 161.9380 14.74361161312900
AEROCUBE 6A             
1 40045U 14033AM  20107.57020913  .00000205  00000-0  36568-4 0  9990
2 40045  97.7432 331.9700 0057172 188.9236 171.0963 14.75547958313222
AEROCUBE 6B             
1 40046U 14033AN  20107.57946415  .00000262  00000-0  44849-4 0  9999
2 40046  97.7347 331.3200 0056599 188.0183 172.0128 14.75531641313362
UKUBE-1                 
1 40074U 14037F   20107.74969586  .00000258  00000-0  38007-4 0  9991
2 40074  98.4549 292.4113 0004153 335.1773  24.9238 14.84232287312601
BRITE-PL2 (HEWELIUSZ)   
1 40119U 14049B   20107.24076473  .00000123  00000-0  21033-4 0  9995
2 40119  97.8925 200.0828 0016335 315.8479  44.1430 14.84489645306460
FIREBIRD 4              
1 40378U 15003C   20107.43259714  .00002130  00000-0  84968-4 0  9991
2 40378  99.1019 155.0323 0125061 160.6109 199.9942 15.19847488287892
GRIFEX                  
1 40379U 15003D   20107.64948873  .00001153  00000-0  52299-4 0  9992
2 40379  99.1095 147.5639 0133295 183.6780 176.3481 15.16245036287481
EXOCUBE (CP10)          
1 40380U 15003E   20107.63599193  .00001044  00000-0  50070-4 0  9994
2 40380  99.1167 143.3728 0137968 197.8004 161.8365 15.14228091287203
AEROCUBE 8A             
1 40659U 15025J   20107.48072541  .00011165  00000-0  12628-3 0  9994
2 40659  55.0163 219.4897 0111764  16.2071 344.2493 15.55742498 33907
AEROCUBE 8B             
1 40660U 15025K   20107.60114461  .00011406  00000-0  12759-3 0  9991
2 40660  55.0135 217.0378 0110992  18.3627 342.1366 15.56076119 33938
TIANWANG 1C (TW-1C)     
1 40926U 15051B   20107.66714153  .00020967  00000-0  22702-3 0  9996
2 40926  97.0918 159.1099 0004635 332.9227 146.3480 15.63577904257363
TIANWANG 1A (TW-1A)     
1 40928U 15051D   20107.38738341  .00003105  00000-0  73895-4 0  9997
2 40928  97.1158 136.7222 0012344  58.4025  58.2955 15.42297403255808
EXACTVIEW 9             
1 40936U 15052G   20105.47294074  .00000793  00000-0  21920-4 0  9997
2 40936   6.0035  76.4924 0009920  78.2146 281.9095 14.76559881245759
AEROCUBE 5C             
1 40965U 15058B   20107.64315268  .00000118  00000-0  33891-4 0  9996
2 40965  64.7790 331.1118 0167990  96.9919 265.0325 14.74502923 32197
AEROCUBE 7              
1 40966U 15058C   20107.56813013  .00000170  00000-0  40003-4 0  9990
2 40966  64.7792 329.9067 0166902  96.7136 265.2993 14.74798956 32184
ATHENOXAT 1             
1 41168U 15077C   20106.79346221  .00001971  00000-0  67784-4 0  9997
2 41168  14.9874 161.1213 0011429 336.2953  23.6841 15.14258678239834
GALASSIA                
1 41170U 15077E   20107.44696275  .00001889  00000-0  62717-4 0  9999
2 41170  14.9877 148.3820 0012712  11.5749 348.4863 15.14563807240009
VELOX-II                
1 41171U 15077F   20107.55407457  .00001556  00000-0  50542-4 0  9998
2 41171  14.9902 190.0453 0008789 273.0993  86.8321 15.11624419239644
